NORAD_CAT_ID,OBJECT_NAME,OBJECT_TYPE,EPOCH,MEAN_MOTION,ECCENTRICITY,INCLINATION,RA_OF_ASC_NODE,ARG_OF_PERICENTER,MEAN_ANOMALY,BSTAR,MEAN_MOTION_DOT,MEAN_MOTION_DDOT,TLE_LINE0,TLE_LINE1,TLE_LINE2,SEMIMAJOR_AXIS,PERIOD,APOGEE,PERIGEE,DECAYED
52342.0,STARLINK-3850,PAYLOAD,2024-02-19 11:37:23,15.08834251,0.0001637,53.2175,322.5514,84.7427,275.3752,-0.0001297,-2.351e-05,0.0,0 STARLINK-3850,1 52342U 22045M   24050.48429538 -.00002351  00000-0 -12970-3 0  9998,2 52342  53.2175 322.5514 0001637  84.7427 275.3752 15.08834251102676,6917.898,95.438,540.895,538.631,0.0
52342.0,STARLINK-3850,PAYLOAD,2024-02-19 22:45:05,15.0882795,0.0001957,53.219,320.4691,85.3473,274.7742,-8.2306e-05,-1.597e-05,0.0,0 STARLINK-3850,1 52342U 22045M   24050.94798286 -.00001597  00000-0 -82306-4 0  9990,2 52342  53.2190 320.4691 0001957  85.3473 274.7742 15.08827950102747,6917.917,95.438,541.136,538.428,0.0
52342.0,STARLINK-3850,PAYLOAD,2024-02-20 11:28:11,15.08831439,0.0001487,53.2189,318.0902,88.219,271.8973,-0.00014176,-2.543e-05,0.0,0 STARLINK-3850,1 52342U 22045M   24051.47790923 -.00002543  00000-0 -14176-3 0  9990,2 52342  53.2189 318.0902 0001487  88.2190 271.8973 15.08831439102829,6917.907,95.438,540.8,538.743,0.0
52342.0,STARLINK-3850,PAYLOAD,2024-02-20 22:35:53,15.08823382,0.0001438,53.218,316.0083,90.9148,269.2009,-4.9849e-05,-1.081e-05,0.0,0 STARLINK-3850,1 52342U 22045M   24051.94159718 -.00001081  00000-0 -49849-4 0  9995,2 52342  53.2180 316.0083 0001438  90.9148 269.2009 15.08823382102893,6917.931,95.439,540.791,538.801,0.0
52342.0,STARLINK-3850,PAYLOAD,2024-02-21 03:22:03,15.08829737,0.0001761,53.22,315.1147,97.3763,262.7429,-7.029e-05,-1.406e-05,0.0,0 STARLINK-3850,1 52342U 22045M   24052.14031558 -.00001406  00000-0 -70290-4 0  9994,2 52342  53.2200 315.1147 0001761  97.3763 262.7429 15.08829737102928,6917.912,95.438,540.995,538.559,0.0
52342.0,STARLINK-3850,PAYLOAD,2024-02-21 22:26:39,15.08848918,0.0001703,53.219,311.5492,99.3037,260.8148,0.00033499,5.049e-05,0.0,0 STARLINK-3850,1 52342U 22045M   24052.93517632  .00005049  00000-0  33499-3 0  9997,2 52342  53.2190 311.5492 0001703  99.3037 260.8148 15.08848918103044,6917.853,95.437,540.896,538.54,0.0
52342.0,STARLINK-3850,PAYLOAD,2024-02-22 09:34:21,15.08843872,0.0001579,53.2185,309.4642,84.9776,275.1397,0.00028301,4.219e-05,0.0,0 STARLINK-3850,1 52342U 22045M   24053.39886159  .00004219  00000-0  28301-3 0  9995,2 52342  53.2185 309.4642 0001579  84.9776 275.1397 15.08843872103119,6917.869,95.437,540.826,538.641,0.0
52342.0,STARLINK-3850,PAYLOAD,2024-02-22 22:17:26,15.08843967,0.0001587,53.2183,307.0897,85.282,274.8353,0.00026346,3.908e-05,0.0,0 STARLINK-3850,1 52342U 22045M   24053.92878093  .00003908  00000-0  26346-3 0  9993,2 52342  53.2183 307.0897 0001587  85.2820 274.8353 15.08843967103197,6917.868,95.437,540.831,538.635,0.0
52342.0,STARLINK-3850,PAYLOAD,2024-02-23 09:25:08,15.0884108,0.0001425,53.2168,305.0005,91.6685,268.447,0.00019465,2.811e-05,0.0,0 STARLINK-3850,1 52342U 22045M   24054.39246309  .00002811  00000-0  19465-3 0  9990,2 52342  53.2168 305.0005 0001425  91.6685 268.4470 15.08841080103261,6917.877,95.437,540.728,538.756,0.0
52342.0,STARLINK-3850,PAYLOAD,2024-02-23 22:08:14,15.0884976,0.0001411,53.2178,302.6281,104.1303,255.9846,-0.00018225,-3.188e-05,0.0,0 STARLINK-3850,1 52342U 22045M   24054.92238470 -.00003188  00000-0 -18225-3 0  9992,2 52342  53.2178 302.6281 0001411 104.1303 255.9846 15.08849760103343,6917.851,95.437,540.692,538.739,0.0
52342.0,STARLINK-3850,PAYLOAD,2024-02-24 09:15:55,15.08845265,0.0001539,53.2185,300.5467,97.2208,262.8959,-3.3803e-06,-3.42e-06,0.0,0 STARLINK-3850,1 52342U 22045M   24055.38606222 -.00000342  00000-0 -33803-5 0  9997,2 52342  53.2185 300.5467 0001539  97.2208 262.8959 15.08845265103417,6917.864,95.437,540.794,538.665,0.0
52342.0,STARLINK-3850,PAYLOAD,2024-02-25 01:09:46,15.08850715,0.000138,53.2178,297.5727,89.279,270.8361,-1.6629e-05,-5.53e-06,0.0,0 STARLINK-3850,1 52342U 22045M   24056.04845690 -.00000553  00000-0 -16629-4 0  9995,2 52342  53.2178 297.5727 0001380  89.2790 270.8361 15.08850715103517,6917.848,95.437,540.667,538.758,0.0
52342.0,STARLINK-3850,PAYLOAD,2024-02-25 09:06:42,15.08851388,0.0001359,53.2176,296.0853,93.2799,266.8349,-2.5087e-05,-6.87e-06,0.0,0 STARLINK-3850,1 52342U 22045M   24056.37965485 -.00000687  00000-0 -25087-4 0  9992,2 52342  53.2176 296.0853 0001359  93.2799 266.8349 15.08851388103562,6917.846,95.437,540.651,538.77,0.0
52342.0,STARLINK-3850,PAYLOAD,2024-02-25 20:14:25,15.0881821,0.0001217,53.2174,294.0039,105.6281,254.4845,0.00043491,6.636e-05,0.0,0 STARLINK-3850,1 52342U 22045M   24056.84335050  .00006636  00000-0  43491-3 0  9999,2 52342  53.2174 294.0039 0001217 105.6281 254.4845 15.08818210103630,6917.947,95.439,540.654,538.97,0.0
52342.0,STARLINK-3850,PAYLOAD,2024-02-25 21:49:47,15.08841126,0.0001371,53.217,293.7065,98.0451,262.0697,8.8961e-05,1.128e-05,0.0,0 STARLINK-3850,1 52342U 22045M   24056.90958101  .00001128  00000-0  88961-4 0  9997,2 52342  53.2170 293.7065 0001371  98.0451 262.0697 15.08841126103649,6917.877,95.437,540.69,538.794,0.0
52342.0,STARLINK-3850,PAYLOAD,2024-02-25 23:25:10,15.08844064,0.0001338,53.217,293.4089,95.9013,264.2132,0.00010994,1.462e-05,0.0,0 STARLINK-3850,1 52342U 22045M   24056.97581874  .00001462  00000-0  10994-3 0  9994,2 52342  53.2170 293.4089 0001338  95.9013 264.2132 15.08844064103658,6917.868,95.437,540.659,538.807,0.0
52342.0,STARLINK-3850,PAYLOAD,2024-02-26 20:05:12,15.08839229,0.0001559,53.2181,289.5439,88.8233,271.2937,4.8608e-05,4.86e-06,0.0,0 STARLINK-3850,1 52342U 22045M   24057.83694566  .00000486  00000-0  48608-4 0  9992,2 52342  53.2181 289.5439 0001559  88.8233 271.2937 15.08839229103787,6917.883,95.438,540.826,538.669,0.0
52342.0,STARLINK-3850,PAYLOAD,2024-02-26 21:40:35,15.08839148,0.0001549,53.2178,289.247,88.7987,271.3182,6.1396e-05,6.89e-06,0.0,0 STARLINK-3850,1 52342U 22045M   24057.90318538  .00000689  00000-0  61396-4 0  9996,2 52342  53.2178 289.2470 0001549  88.7987 271.3182 15.08839148103793,6917.883,95.438,540.82,538.676,0.0
52342.0,STARLINK-3850,PAYLOAD,2024-02-27 08:48:17,15.08839794,0.0001554,53.2169,287.1643,89.353,270.764,5.7018e-05,6.2e-06,0.0,0 STARLINK-3850,1 52342U 22045M   24058.36686539  .00000620  00000-0  57018-4 0  9997,2 52342  53.2169 287.1643 0001554  89.3530 270.7640 15.08839794103866,6917.881,95.438,540.821,538.671,0.0
52342.0,STARLINK-3850,PAYLOAD,2024-02-27 21:31:22,15.0883623,0.0001401,53.217,284.7848,97.277,262.8382,0.00019878,2.877e-05,0.0,0 STARLINK-3850,1 52342U 22045M   24058.89678370  .00002877  00000-0  19878-3 0  9996,2 52342  53.2170 284.7848 0001401  97.2770 262.8382 15.08836230103949,6917.892,95.438,540.726,538.788,0.0
52342.0,STARLINK-3850,PAYLOAD,2024-02-28 15:00:36,15.08839339,0.0001393,53.2163,281.5134,93.5801,266.5351,9.0053e-05,1.146e-05,0.0,0 STARLINK-3850,1 52342U 22045M   24059.62542521  .00001146  00000-0  90053-4 0  9999,2 52342  53.2163 281.5134 0001393  93.5801 266.5351 15.08839339104051,6917.882,95.438,540.711,538.784,0.0
52342.0,STARLINK-3850,PAYLOAD,2024-02-28 21:22:09,15.08841417,0.0001365,53.2164,280.3239,93.5409,266.5739,9.6094e-05,1.242e-05,0.0,0 STARLINK-3850,1 52342U 22045M   24059.89038370  .00001242  00000-0  96094-4 0  9998,2 52342  53.2164 280.3239 0001365  93.5409 266.5739 15.08841417104092,6917.876,95.437,540.685,538.797,0.0
52342.0,STARLINK-3850,PAYLOAD,2024-02-29 00:32:55,15.08841667,0.0001367,53.2164,279.7293,93.3507,266.7641,9.4598e-05,1.218e-05,0.0,0 STARLINK-3850,1 52342U 22045M   24060.02286352  .00001218  00000-0  94598-4 0  9990,2 52342  53.2164 279.7293 0001367  93.3507 266.7641 15.08841667104117,6917.875,95.437,540.686,538.795,0.0
52342.0,STARLINK-3850,PAYLOAD,2024-02-29 14:51:23,15.08841793,0.0001391,53.2164,277.0533,93.9486,266.1665,7.3936e-05,8.89e-06,0.0,0 STARLINK-3850,1 52342U 22045M   24060.61902372  .00000889  00000-0  73936-4 0  9998,2 52342  53.2164 277.0533 0001391  93.9486 266.1665 15.08841793104204,6917.875,95.437,540.702,538.778,0.0
52342.0,STARLINK-3850,PAYLOAD,2024-02-29 21:12:56,15.08841537,0.0001372,53.2164,275.8638,93.5137,266.6012,5.8691e-05,6.46e-06,0.0,0 STARLINK-3850,1 52342U 22045M   24060.88398405  .00000646  00000-0  58691-4 0  9995,2 52342  53.2164 275.8638 0001372  93.5137 266.6012 15.08841537104245,6917.876,95.437,540.69,538.792,0.0
52342.0,STARLINK-3850,PAYLOAD,2024-03-01 14:42:10,15.08840513,0.0001328,53.216,272.593,92.8847,267.2297,5.2805e-05,5.53e-06,0.0,0 STARLINK-3850,1 52342U 22045M   24061.61262490  .00000553  00000-0  52805-4 0  9999,2 52342  53.2160 272.5930 0001328  92.8847 267.2297 15.08840513104358,6917.879,95.438,540.663,538.825,0.0
52342.0,STARLINK-3850,PAYLOAD,2024-03-01 19:28:20,15.08841943,0.0001327,53.2162,271.7009,92.6326,267.4818,5.8524e-05,6.44e-06,0.0,0 STARLINK-3850,1 52342U 22045M   24061.81134355  .00000644  00000-0  58524-4 0  9994,2 52342  53.2162 271.7009 0001327  92.6326 267.4818 15.08841943104389,6917.874,95.437,540.657,538.821,0.0
52342.0,STARLINK-3850,PAYLOAD,2024-03-02 20:54:30,15.08841126,0.0001376,53.2168,266.9465,95.0095,265.1054,5.6522e-05,6.12e-06,0.0,0 STARLINK-3850,1 52342U 22045M   24062.87118478  .00000612  00000-0  56522-4 0  9990,2 52342  53.2168 266.9465 0001376  95.0095 265.1054 15.08841126104549,6917.877,95.437,540.694,538.79,0.0
52342.0,STARLINK-3850,PAYLOAD,2024-03-03 06:26:49,15.08841101,0.0001357,53.2166,265.1566,82.114,278.0006,6.5301e-05,7.52e-06,0.0,0 STARLINK-3850,1 52342U 22045M   24063.26862478  .00000752  00000-0  65301-4 0  9990,2 52342  53.2166 265.1566 0001357  82.1140 278.0006 15.08841101104607,6917.877,95.437,540.681,538.803,0.0
52342.0,STARLINK-3850,PAYLOAD,2024-03-03 20:45:17,15.08838134,0.0001454,53.2172,262.4839,85.7685,274.3473,4.3444e-05,4.03e-06,0.0,0 STARLINK-3850,1 52342U 22045M   24063.86478986  .00000403  00000-0  43444-4 0  9990,2 52342  53.2172 262.4839 0001454  85.7685 274.3473 15.08838134104696,6917.886,95.438,540.757,538.745,0.0
